NORAD_CAT_ID,OBJECT_NAME,OBJECT_TYPE,EPOCH,MEAN_MOTION,ECCENTRICITY,INCLINATION,RA_OF_ASC_NODE,ARG_OF_PERICENTER,MEAN_ANOMALY,BSTAR,MEAN_MOTION_DOT,MEAN_MOTION_DDOT,TLE_LINE0,TLE_LINE1,TLE_LINE2,SEMIMAJOR_AXIS,PERIOD,APOGEE,PERIGEE,DECAYED
51861.0,STARLINK-3562,PAYLOAD,2023-05-22 08:44:53,15.088512,0.0001053,53.216,278.5169,70.299,289.8116,0.0010698,0.00016784,0.0,0 STARLINK-3562,1 51861U 22022K   23142.36450817  .00016784  00000-0  10698-2 0  9997,2 51861  53.2160 278.5169 0001053  70.2990 289.8116 15.08851200 68766,6917.846,95.437,540.44,538.983,0.0
51861.0,STARLINK-3562,PAYLOAD,2023-05-22 11:55:39,15.08853548,0.0001057,53.2159,277.9227,63.0871,297.0229,0.0014926,0.00023555,0.0,0 STARLINK-3562,1 51861U 22022K   23142.49698968  .00023555  00000-0  14926-2 0  9994,2 51861  53.2159 277.9227 0001057  63.0871 297.0229 15.08853548 68712,6917.839,95.437,540.435,538.973,0.0
51861.0,STARLINK-3562,PAYLOAD,2023-05-22 16:41:49,15.08864296,0.0001096,53.2158,277.0312,59.378,300.732,0.001581,0.0002498,0.0,0 STARLINK-3562,1 51861U 22022K   23142.69570696  .00024980  00000-0  15810-2 0  9999,2 51861  53.2158 277.0312 0001096  59.3780 300.7320 15.08864296 68746,6917.806,95.436,540.429,538.913,0.0
51861.0,STARLINK-3562,PAYLOAD,2023-05-23 14:57:12,15.08849537,9.22e-05,53.217,272.8668,80.8809,279.2287,0.00039624,6.026e-05,0.0,0 STARLINK-3562,1 51861U 22022K   23143.62306581  .00006026  00000-0  39624-3 0  9994,2 51861  53.2170 272.8668 0000922  80.8809 279.2287 15.08849537 68951,6917.851,95.437,540.354,539.078,0.0
51861.0,STARLINK-3562,PAYLOAD,2023-05-24 02:04:54,15.08843644,0.0001187,53.2165,270.7872,65.9014,294.2103,0.00032044,4.816e-05,0.0,0 STARLINK-3562,1 51861U 22022K   23144.08674762  .00004816  00000-0  32044-3 0  9998,2 51861  53.2165 270.7872 0001187  65.9014 294.2103 15.08843644 69021,6917.869,95.437,540.555,538.913,0.0
51861.0,STARLINK-3562,PAYLOAD,2023-05-24 14:47:59,15.08847243,0.0001065,53.2165,268.4075,72.2058,287.905,0.00012605,1.719e-05,0.0,0 STARLINK-3562,1 51861U 22022K   23144.61666528  .00001719  00000-0  12605-3 0  9998,2 51861  53.2165 268.4075 0001065  72.2058 287.9050 15.08847243 69034,6917.858,95.437,540.46,538.986,0.0
51861.0,STARLINK-3562,PAYLOAD,2023-05-25 17:49:33,15.08844464,0.0001128,53.2167,263.3491,90.1377,269.9745,0.00014638,2.043e-05,0.0,0 STARLINK-3562,1 51861U 22022K   23145.74274468  .00002043  00000-0  14638-3 0  9990,2 51861  53.2167 263.3491 0001128  90.1377 269.9745 15.08844464 69274,6917.867,95.437,540.512,538.951,0.0
51861.0,STARLINK-3562,PAYLOAD,2023-05-26 12:54:10,15.08843524,0.0001109,53.2165,259.7804,102.0231,258.0886,7.676e-05,9.34e-06,0.0,0 STARLINK-3562,1 51861U 22022K   23146.53762344  .00000934  00000-0  76760-4 0  9995,2 51861  53.2165 259.7804 0001109 102.0231 258.0886 15.08843524 69327,6917.87,95.437,540.502,538.967,0.0
51861.0,STARLINK-3562,PAYLOAD,2023-05-26 14:29:33,15.08846554,0.000104,53.2166,259.483,95.5923,264.5188,7.5002e-05,9.06e-06,0.0,0 STARLINK-3562,1 51861U 22022K   23146.60386162  .00000906  00000-0  75002-4 0  9990,2 51861  53.2166 259.4830 0001040  95.5923 264.5188 15.08846554 69336,6917.86,95.437,540.445,539.006,0.0
51861.0,STARLINK-3562,PAYLOAD,2023-05-27 00:01:52,15.08842546,0.0001061,53.2162,257.7013,75.3068,284.8041,3.5128e-06,-2.32e-06,0.0,0 STARLINK-3562,1 51861U 22022K   23147.00130365 -.00000232  00000-0  35128-5 0  9996,2 51861  53.2162 257.7013 0001061  75.3068 284.8041 15.08842546 69469,6917.873,95.437,540.472,539.004,0.0
51861.0,STARLINK-3562,PAYLOAD,2023-05-27 14:20:21,15.08841077,8.16e-05,53.2159,255.0272,86.0097,274.0988,1.0594e-05,-1.19e-06,0.0,0 STARLINK-3562,1 51861U 22022K   23147.59746725 -.00000119  00000-0  10594-4 0  9996,2 51861  53.2159 255.0272 0000816  86.0097 274.0988 15.08841077 69482,6917.877,95.437,540.307,539.178,0.0
51861.0,STARLINK-3562,PAYLOAD,2023-05-27 23:52:39,15.08841288,9.42e-05,53.2161,253.2427,76.4531,283.6566,1.407e-05,-6.4e-07,0.0,0 STARLINK-3562,1 51861U 22022K   23147.99490716 -.00000064  00000-0  14070-4 0  9998,2 51861  53.2161 253.2427 0000942  76.4531 283.6566 15.08841288 69542,6917.876,95.437,540.393,539.09,0.0
51861.0,STARLINK-3562,PAYLOAD,2023-05-28 11:00:23,15.08774821,0.0001278,53.2164,251.1616,99.077,261.0366,0.0010269,0.00016064,0.0,0 STARLINK-3562,1 51861U 22022K   23148.45859986  .00016064  00000-0  10269-2 0  9998,2 51861  53.2164 251.1616 0001278  99.0770 261.0366 15.08774821 69682,6918.08,95.442,540.829,539.06,0.0
51861.0,STARLINK-3562,PAYLOAD,2023-05-28 17:21:54,15.08845212,9.63e-05,53.2162,249.9717,100.8939,259.2162,0.00023433,3.444e-05,0.0,0 STARLINK-3562,1 51861U 22022K   23148.72354176  .00003444  00000-0  23433-3 0  9995,2 51861  53.2162 249.9717 0000963 100.8939 259.2162 15.08845212 69726,6917.864,95.437,540.396,539.063,0.0
51861.0,STARLINK-3562,PAYLOAD,2023-05-28 23:43:27,15.08840695,0.0001219,53.2182,248.7791,83.6107,276.5024,9.2006e-05,1.177e-05,0.0,0 STARLINK-3562,1 51861U 22022K   23148.98850847  .00001177  00000-0  92006-4 0  9993,2 51861  53.2182 248.7791 0001219  83.6107 276.5024 15.08840695 69760,6917.878,95.438,540.587,538.9,0.0
51861.0,STARLINK-3562,PAYLOAD,2023-05-29 14:01:55,15.08841734,9.34e-05,53.2182,246.1062,100.9164,259.1933,0.00011214,1.498e-05,0.0,0 STARLINK-3562,1 51861U 22022K   23149.58466662  .00001498  00000-0  11214-3 0  9995,2 51861  53.2182 246.1062 0000934 100.9164 259.1933 15.08841734 69785,6917.875,95.437,540.386,539.094,0.0
51861.0,STARLINK-3562,PAYLOAD,2023-05-30 12:17:18,15.08853727,0.0001095,53.2163,241.941,89.8237,270.288,0.00016123,2.28e-05,0.0,0 STARLINK-3562,1 51861U 22022K   23150.51201584  .00002280  00000-0  16123-3 0  9994,2 51861  53.2163 241.9410 0001095  89.8237 270.2880 15.08853727 69925,6917.838,95.437,540.461,538.946,0.0
51861.0,STARLINK-3562,PAYLOAD,2023-05-30 13:52:41,15.08856943,0.0001032,53.216,241.6437,89.5271,270.584,0.00012028,1.628e-05,0.0,0 STARLINK-3562,1 51861U 22022K   23150.57825348  .00001628  00000-0  12028-3 0  9995,2 51861  53.2160 241.6437 0001032  89.5271 270.5840 15.08856943 70007,6917.829,95.436,540.408,538.98,0.0
51861.0,STARLINK-3562,PAYLOAD,2023-05-30 23:25:00,15.08846371,9.64e-05,53.2156,239.8601,86.8896,273.2207,3.628e-05,2.9e-06,0.0,0 STARLINK-3562,1 51861U 22022K   23150.97569743  .00000290  00000-0  36280-4 0  9994,2 51861  53.2156 239.8601 0000964  86.8896 273.2207 15.08846371 70067,6917.861,95.437,540.393,539.059,0.0
51861.0,STARLINK-3562,PAYLOAD,2023-05-31 10:32:42,15.08838117,0.0001083,53.2161,237.7797,75.7095,284.4017,2.4163e-05,9.7e-07,0.0,0 STARLINK-3562,1 51861U 22022K   23151.43938427  .00000097  00000-0  24163-4 0  9997,2 51861  53.2161 237.7797 0001083  75.7095 284.4017 15.08838117 70137,6917.886,95.438,540.5,539.002,0.0
51861.0,STARLINK-3562,PAYLOAD,2023-05-31 12:08:05,15.08840408,0.000104,53.2157,237.4799,123.2135,236.8957,-1.5355e-05,-5.32e-06,0.0,0 STARLINK-3562,1 51861U 22022K   23151.50562072 -.00000532  00000-0 -15355-4 0  9993,2 51861  53.2157 237.4799 0001040 123.2135 236.8957 15.08840408 70071,6917.879,95.438,540.464,539.025,0.0
51861.0,STARLINK-3562,PAYLOAD,2023-06-01 10:23:29,15.08841348,0.0001224,53.2162,233.315,125.7479,234.3627,3.2519e-06,-2.36e-06,0.0,0 STARLINK-3562,1 51861U 22022K   23152.43298286 -.00000236  00000-0  32519-5 0  9991,2 51861  53.2162 233.3150 0001224 125.7479 234.3627 15.08841348 70212,6917.876,95.437,540.588,538.895,0.0
51861.0,STARLINK-3562,PAYLOAD,2023-06-02 10:14:17,15.08832138,0.000111,53.2156,228.8577,90.4882,269.6237,0.00013633,1.882e-05,0.0,0 STARLINK-3562,1 51861U 22022K   23153.42659372  .00001882  00000-0  13633-3 0  9999,2 51861  53.2156 228.8577 0001110  90.4882 269.6237 15.08832138 70436,6917.904,95.438,540.537,539.002,0.0
51861.0,STARLINK-3562,PAYLOAD,2023-06-03 11:40:27,15.08837684,0.0001117,53.2157,224.0994,95.5918,264.5201,9.8936e-05,1.287e-05,0.0,0 STARLINK-3562,1 51861U 22022K   23154.48643448  .00001287  00000-0  98936-4 0  9992,2 51861  53.2157 224.0994 0001117  95.5918 264.5201 15.08837684 70527,6917.887,95.438,540.525,538.98,0.0
51861.0,STARLINK-3562,PAYLOAD,2023-06-03 14:51:14,15.08837891,0.0001131,53.2165,223.5041,100.8219,259.2901,9.7732e-05,1.268e-05,0.0,0 STARLINK-3562,1 51861U 22022K   23154.61891424  .00001268  00000-0  97732-4 0  9998,2 51861  53.2165 223.5041 0001131 100.8219 259.2901 15.08837891 70611,6917.887,95.438,540.534,538.969,0.0
51861.0,STARLINK-3562,PAYLOAD,2023-06-03 21:12:46,15.08836822,0.0001083,53.2163,222.3147,98.6049,261.5066,9.9702e-05,1.299e-05,0.0,0 STARLINK-3562,1 51861U 22022K   23154.88387556  .00001299  00000-0  99702-4 0  9996,2 51861  53.2163 222.3147 0001083  98.6049 261.5066 15.08836822 70581,6917.89,95.438,540.504,539.006,0.0
51861.0,STARLINK-3562,PAYLOAD,2023-06-04 09:55:51,15.08837704,0.0001105,53.2163,219.9358,105.9541,254.1573,0.0001192,1.61e-05,0.0,0 STARLINK-3562,1 51861U 22022K   23155.41379603  .00001610  00000-0  11920-3 0  9992,2 51861  53.2163 219.9358 0001105 105.9541 254.1573 15.08837704 70661,6917.887,95.438,540.517,538.988,0.0
51861.0,STARLINK-3562,PAYLOAD,2023-06-04 21:03:34,15.08837689,0.0001078,53.2166,217.8549,93.9359,266.1756,0.0001074,1.422e-05,0.0,0 STARLINK-3562,1 51861U 22022K   23155.87747716  .00001422  00000-0  10740-3 0  9996,2 51861  53.2166 217.8549 0001078  93.9359 266.1756 15.08837689 70731,6917.887,95.438,540.498,539.007,0.0
51861.0,STARLINK-3562,PAYLOAD,2023-06-05 00:14:20,15.08838139,0.0001039,53.2159,217.2607,95.7891,264.322,6.7297e-05,7.83e-06,0.0,0 STARLINK-3562,1 51861U 22022K   23156.00995805  .00000783  00000-0  67297-4 0  9995,2 51861  53.2159 217.2607 0001039  95.7891 264.3220 15.08838139 70827,6917.886,95.438,540.47,539.032,0.0
51861.0,STARLINK-3562,PAYLOAD,2023-06-05 12:57:25,15.08841747,0.000101,53.2159,214.8818,93.7934,266.3174,7.7361e-05,9.44e-06,0.0,0 STARLINK-3562,1 51861U 22022K   23156.53987568  .00000944  00000-0  77361-4 0  9992,2 51861  53.2159 214.8818 0001010  93.7934 266.3174 15.08841747 70839,6917.875,95.437,540.439,539.041,0.0
